COSMOS 1892             
1 18421U 87088A   20134.44849182  .00000332  00000-0  15068-4 0  9999
2 18421  82.4979 308.1870 0014999 181.7237 178.3947 15.17122569779242
SL-14 R/B               
1 18749U 88001B   20134.15565141  .00000072  00000-0  58628-5 0  9997
2 18749  82.5170  30.7254 0020070  57.1638 103.6615 14.83217291726638
COSMOS 1933             
1 18958U 88020A   20134.52571198  .00000023  00000-0 -37113-6 0  9994
2 18958  82.5281 159.3281 0009735 271.3678  88.6433 15.03717014729836
SL-3 R/B                
1 19046U 88032B   20134.56877572 -.00000663  00000-0 -44511-4 0  9994
2 19046  97.4046 157.1812 0036780 327.7095  32.1879 15.02701617731724
SL-16 R/B               
1 19120U 88039B   20134.57899326 -.00000179  00000-0 -62148-4 0  9994
2 19120  71.0157 242.2112 0022041 354.8214   5.2679 14.19211277656704
COSMOS 1953             
1 19210U 88050A   20134.36438993 -.00000131  00000-0 -10992-4 0  9991
2 19210  82.5171  83.8893 0012073 233.4839 126.5277 15.05963628737511
SL-8 R/B                
1 19257U 88053B   20134.30384530  .00000001  00000-0  91348-5 0  9995
2 19257  74.0503  65.6145 0019472  51.8093  61.3851 14.37466349670959
COSMOS 1975             
1 19573U 88093A   20134.31412039 -.00000133  00000-0 -11432-4 0  9990
2 19573  82.5223  38.2180 0012452 284.6046  75.3800 15.04869891719365
SL-14 R/B               
1 19574U 88093B   20134.34737145  .00000072  00000-0  58135-5 0  9994
2 19574  82.5342 232.8618 0020727 214.3599 205.2394 14.83327556685663
SL-16 R/B               
1 19650U 88102B   20134.58207107  .00000228  00000-0  14034-3 0  9997
2 19650  70.9991 303.2338 0014039 358.9741   1.1350 14.15789596625945
INTERCOSMOS 24          
1 20261U 89080A   20134.13312774  .00000199  00000-0  52896-4 0  9997
2 20261  82.6075  43.1262 1203117 169.2986 193.6396 12.56110575399567
SL-14 R/B               
1 20262U 89080C   20134.41023488  .00000062  00000-0  14535-4 0  9997
2 20262  82.5915  96.3859 1237021 357.1155   2.3220 12.48940426394619
DELTA 2 R/B(1)          
1 20303U 89085B   20134.55608584  .00001300  00000-0  43549-4 0  9992
2 20303  35.6221 229.7335 0095692 226.1994 133.0788 15.27243632663262
DELTA 1 R/B             
1 20323U 89089B   20134.46956457  .00000028  00000-0  16362-4 0  9992
2 20323  97.0855 285.8947 0071180 342.3694  17.5034 14.48344512587801
ARIANE 40 R/B           
1 20443U 90005H   20134.58558860 -.00000012  00000-0  10566-4 0  9998
2 20443  98.5781 196.4617 0011625  88.4021 271.8497 14.38087414587104
DELTA 2 R/B(1)          
1 20453U 90008B   20134.26900342  .00001213  00000-0  70589-4 0  9997
2 20453  35.6243 103.7871 0280660  11.0504 349.6216 14.85504694605962
COSMOS 2058             
1 20465U 90010A   20134.58082545  .00000145  00000-0  99525-5 0  9999
2 20465  82.4869 306.9015 0014439 323.3740  36.6494 14.98001969623104
SL-14 R/B               
1 20466U 90010B   20134.48795965  .00000069  00000-0  57273-5 0  9995
2 20466  82.5018  99.4988 0022095  92.2037 268.1707 14.81383331613558
SL-14 R/B               
1 20511U 90018B   20134.32026858  .00000062  00000-0  50811-5 0  9999
2 20511  82.5258  45.8758 0016229 230.0491 269.7107 14.80039355607910
HST                     
1 20580U 90037B   20134.52262877  .00000344  00000-0  99203-5 0  9992
2 20580  28.4686 190.6993 0002960  76.2486  56.9719 15.09384639450686
SL-16 R/B               
1 20625U 90046B   20134.29181974 -.00000210  00000-0 -84214-4 0  9993
2 20625  70.9999  82.0017 0016658 292.0377  67.8975 14.14656992547896
COSMOS 2084             
1 20663U 90055A   20134.53682057 -.00000060  00000-0  12153-4 0  9995
2 20663  62.7948 284.7649 0030268 245.7064 114.0868 14.92081768618146
SL-6 R/B(2)             
1 20666U 90055D   20134.52821517 -.00000083  00000-0  10087-4 0  9992
2 20666  62.7860 201.3058 0039403 333.0390  26.8655 14.92332373619555
SL-8 R/B                
1 20775U 90078B   20134.43137083  .00000688  00000-0  32773-4 0  9992
2 20775  82.9276 255.5001 0572723 303.3013  51.4556 14.34281141500723
SL-8 R/B                
1 21088U 91006B   20134.50883956  .00000125  00000-0  11093-3 0  9994
2 21088  82.9397 311.2014 0021583 226.6477 185.7361 13.77145119471400
OKEAN-3                 
1 21397U 91039A   20134.59498541  .00000173  00000-0  14163-4 0  9999
2 21397  82.5241 209.8240 0016213 287.6111  72.3339 14.92919491547068
COSMOS 2151             
1 21422U 91042A   20134.58730138  .00000091  00000-0  64410-5 0  9992
2 21422  82.4982 316.1417 0013966 356.0346   4.0761 14.92127785545683
SL-14 R/B               
1 21423U 91042B   20134.16580083  .00000069  00000-0  60409-5 0  9998
2 21423  82.4965  49.8858 0018112  19.6851 340.5057 14.79789803538447
ERS-1                   
1 21574U 91050A   20134.48112751  .00000029  00000-0  24174-4 0  9996
2 21574  98.5948  87.8332 0033710  32.9500 327.3779 14.37742204510073
ARIANE 40 R/B           
1 21610U 91050F   20134.12169878  .00000006  00000-0  15423-4 0  9992
2 21610  98.4666 203.7043 0003446  27.9800 344.6568 14.40902601512891
INTERCOSMOS 25          
1 21819U 91086A   20134.46381719 -.00000416  00000-0 -88227-4 0  9998
2 21819  82.5941 147.2948 1514767 346.6085   9.8621 12.05158677240071
SL-8 R/B                
1 21876U 92008B   20134.33102689  .00000047  00000-0  33675-4 0  9994
2 21876  82.9299  48.5278 0033827 313.7652 164.9981 13.75656848417046
SL-8 R/B                
1 21938U 92020B   20134.54176095  .00000117  00000-0  10571-3 0  9999
2 21938  82.9277 292.4803 0030534 110.2827 315.7564 13.75282886408872
COSMOS 2219             
1 22219U 92076A   20134.54436720  .00000195  00000-0  12792-3 0  9990
2 22219  71.0586 140.6348 0019253 213.3277 146.6634 14.13646984417880
SL-16 R/B               
1 22220U 92076B   20134.61456941 -.00000029  00000-0  93699-5 0  9991
2 22220  71.0010 344.9226 0010655  96.6534 323.9692 14.16455944420743
COSMOS 2221             
1 22236U 92080A   20134.52173462  .00000131  00000-0  11528-4 0  9990
2 22236  82.5055 136.6655 0018322  78.8369 281.4907 14.87918158485124
SL-16 R/B               
1 22285U 92093B   20134.45043555 -.00000251  00000-0 -10482-3 0  9991
2 22285  71.0189 145.9504 0006224 295.5937  64.4542 14.15040659412387
COSMOS 2228             
1 22286U 92094A   20134.34450933  .00000139  00000-0  12288-4 0  9993
2 22286  82.5194  93.0213 0020624 193.6471 166.4192 14.88136633459228
SL-16 R/B               
1 22566U 93016B   20134.05071406 -.00000303  00000-0 -13191-3 0  9999
2 22566  71.0087   0.0674 0011991 310.9105  49.0978 14.14961663401321
COSMOS 2242             
1 22626U 93024A   20134.45335396  .00000151  00000-0  13689-4 0  9992
2 22626  82.5192 121.0320 0018474 192.6844 167.3911 14.87991370463958
SL-16 R/B               
1 22803U 93059B   20134.52503615 -.00000187  00000-0 -69199-4 0  9994
2 22803  70.9888 172.8752 0018524 215.5698 144.4192 14.16818482378359
ARIANE 40 R/B           
1 22830U 93061H   20134.56342832 -.00000020  00000-0  95514-5 0  9999
2 22830  98.7681 183.4256 0011923  67.6577 292.5868 14.31449441389835
COSMOS 2278             
1 23087U 94023A   20134.57971044  .00000136  00000-0  96788-4 0  9997
2 23087  71.0520 300.5461 0007779  25.3857 334.7646 14.13799099344260
SL-16 R/B               
1 23088U 94023B   20134.54263174  .00000298  00000-0  17962-3 0  9998
2 23088  71.0007 214.3955 0005352 280.5926  79.4594 14.14682815345374
SL-16 R/B               
1 23343U 94074B   20134.13560932 -.00000007  00000-0  63538-5 0  9996
2 23343  98.0023 187.4411 0005504 262.9306 116.9576 14.76822120373413
SL-16 R/B               
1 23405U 94077B   20134.42777012  .00000087  00000-0  69526-4 0  9998
2 23405  70.9796 144.1089 0002680 200.1404 159.9614 14.15218726315403
ERS-2                   
1 23560U 95021A   20134.47837056  .00000442  00000-0  22493-4 0  9997
2 23560  98.5373 283.2105 0002232 303.1494  56.9525 15.23145506336799
ARIANE 40+ R/B          
1 23561U 95021B   20134.60265576  .00000011  00000-0  18815-4 0  9990
2 23561  98.7273 173.2541 0006883   7.8975 104.6229 14.37967608313562
SL-16 R/B               
1 23705U 95058B   20134.59806295 -.00000224  00000-0 -90978-4 0  9995
2 23705  71.0222 322.0838 0010545 126.7067 233.5026 14.15137836267042
SL-16 R/B               
1 24298U 96051B   20134.60223530  .00000021  00000-0  37357-4 0  9999
2 24298  70.8439 343.9950 0012873  40.2921 319.9150 14.12498754221435
ORBVIEW 2 (SEASTAR)     
1 24883U 97037A   20134.29326857  .00000038  00000-0  29864-4 0  9997
2 24883  98.6061 247.7658 0002165 179.5531 180.5656 14.33553326203675
SL-16 R/B               
1 25400U 98043G   20134.40698909 -.00000006  00000-0  15637-4 0  9993
2 25400  98.6056  70.9846 0011061  78.3049 281.9371 14.25453052136025
SL-16 R/B               
1 25407U 98045B   20134.57862808  .00000179  00000-0  11544-3 0  9993
2 25407  71.0104 330.9015 0006875  13.9473 346.1838 14.15800352126143
ISS (ZARYA)             
1 25544U 98067A   20134.54218028  .00000832  00000-0  22964-4 0  9990
2 25544  51.6441 159.9408 0000907 287.5644 232.4942 15.49368071226641
SL-8 R/B                
1 25723U 99022C   20134.54676628  .00010271  00000-0  76503-4 0  9991
2 25723  48.4093 195.9863 0004100 189.0661 171.0218 15.73337580172165
CZ-4B R/B               
1 25732U 99025C   20134.61685211 -.00000035  00000-0  52603-5 0  9994
2 25732  98.9472 163.1059 0036474 310.9441 157.1950 14.17676036 86880
OKEAN-O                 
1 25860U 99039A   20134.54641017  .00000006  00000-0  84564-5 0  9997
2 25860  98.2162 152.9342 0001301  66.2509 293.8837 14.76659416120361
SL-16 R/B               
1 25861U 99039B   20134.55735625  .00000006  00000-0  83708-5 0  9997
2 25861  98.2078 136.0267 0014286 270.0226 200.2042 14.78575918122463
DELTA 2 R/B             
1 25876U 99041E   20134.35264521 -.00000155  00000-0  12860-4 0  9992
2 25876  51.7675  88.9000 0530440 241.7530 112.8888 14.04427082 63719
